start=new Date('2022-07-02T00:00:00.000Z').valueOf();
sats=[{"OBJECT_TYPE":"PAYLOAD","EPOCH":"2022-07-01T03:39:29.114784","OBJECT_ID":"2022-001F","SEMIMAJOR_AXIS":"6917.863","ECCENTRICITY":"0.00025000","ELEMENT_SET_NO":"999","MEAN_ANOMALY":"300.4460","MEAN_ELEMENT_THEORY":"SGP4","TIME_SYSTEM":"UTC","TLE_LINE1":"1 50808U 22001F   22182.15242031  .00002069  00000-0  14804-3 0  9996","FILE":"3506285","MEAN_MOTION":"15.08845609","GP_ID":"207211902","CENTER_NAME":"EARTH","DECAY_DATE":null,"APOAPSIS":"541.458","REF_FRAME":"TEME","MEAN_MOTION_DOT":"0.00002069","RA_OF_ASC_NODE":"88.4503","MEAN_MOTION_DDOT":"0.0000000000000","INCLINATION":"53.2173","COUNTRY_CODE":"US","TLE_LINE2":"2 50808  53.2173  88.4503 0002500  59.6780 300.4460 15.08845609 27118","LAUNCH_DATE":"2022-01-06","PERIAPSIS":"537.999","ARG_OF_PERICENTER":"59.6780","SITE":"AFETR","OBJECT_NAME":"STARLINK-3355","RCS_SIZE":"LARGE","CLASSIFICATION_TYPE":"U","REV_AT_EPOCH":"2711","BSTAR":"0.00014804000000","EPHEMERIS_TYPE":"0","NORAD_CAT_ID":"50808","PERIOD":"95.437"},{"OBJECT_TYPE":"PAYLOAD","ELEMENT_SET_NO":"999","MEAN_ANOMALY":"299.5624","OBJECT_ID":"2022-001G","ECCENTRICITY":"0.00023960","SEMIMAJOR_AXIS":"6917.894","EPOCH":"2022-07-01T03:44:47.381280","TLE_LINE1":"1 50809U 22001G   22182.15610395  .00000145  00000-0  27232-4 0  9992","TIME_SYSTEM":"UTC","MEAN_ELEMENT_THEORY":"SGP4","MEAN_MOTION":"15.08835635","FILE":"3506285","MEAN_MOTION_DOT":"0.00000145","DECAY_DATE":null,"CENTER_NAME":"EARTH","REF_FRAME":"TEME","APOAPSIS":"541.416","GP_ID":"207210650","LAUNCH_DATE":"2022-01-06","PERIAPSIS":"538.101","TLE_LINE2":"2 50809  53.2176  88.4343 0002396  60.5607 299.5624 15.08835635 27114","COUNTRY_CODE":"US","RA_OF_ASC_NODE":"88.4343","MEAN_MOTION_DDOT":"0.0000000000000","INCLINATION":"53.2176","ARG_OF_PERICENTER":"60.5607","EPHEMERIS_TYPE":"0","PERIOD":"95.438","NORAD_CAT_ID":"50809","REV_AT_EPOCH":"2711","BSTAR":"0.00002723200000","OBJECT_NAME":"STARLINK-3232","SITE":"AFETR","RCS_SIZE":"LARGE","CLASSIFICATION_TYPE":"U"},{"INCLINATION":"53.2191","RA_OF_ASC_NODE":"88.4804","MEAN_MOTION_DDOT":"0.0000000000000","PERIAPSIS":"537.999","LAUNCH_DATE":"2022-01-06","TLE_LINE2":"2 50810  53.2191  88.4804 0002529  60.2806 299.8438 15.08838952 27112","COUNTRY_CODE":"US","APOAPSIS":"541.498","REF_FRAME":"TEME","CENTER_NAME":"EARTH","DECAY_DATE":null,"GP_ID":"207210900","MEAN_MOTION_DOT":"0.00000126","CLASSIFICATION_TYPE":"U","OBJECT_NAME":"STARLINK-3348","SITE":"AFETR","RCS_SIZE":"LARGE","NORAD_CAT_ID":"50810","PERIOD":"95.438","EPHEMERIS_TYPE":"0","REV_AT_EPOCH":"2711","BSTAR":"0.00002605700000","ARG_OF_PERICENTER":"60.2806","ECCENTRICITY":"0.00025290","SEMIMAJOR_AXIS":"6917.884","OBJECT_ID":"2022-001H","EPOCH":"2022-07-01T03:34:11.146368","MEAN_ANOMALY":"299.8438","ELEMENT_SET_NO":"999","OBJECT_TYPE":"PAYLOAD","FILE":"3506285","MEAN_MOTION":"15.08838952","MEAN_ELEMENT_THEORY":"SGP4","TLE_LINE1":"1 50810U 22001H   22182.14874012  .00000126  00000-0  26057-4 0  9994","TIME_SYSTEM":"UTC"},{"OBJECT_TYPE":"PAYLOAD","EPOCH":"2022-07-01T11:20:30.551712","OBJECT_ID":"2022-001J","ECCENTRICITY":"0.00023210","SEMIMAJOR_AXIS":"6917.868","ELEMENT_SET_NO":"999","MEAN_ANOMALY":"293.1039","MEAN_ELEMENT_THEORY":"SGP4","TIME_SYSTEM":"UTC","TLE_LINE1":"1 50811U 22001J   22182.47257583  .00002316  00000-0  16353-3 0  9999","FILE":"3506352","MEAN_MOTION":"15.08844155","GP_ID":"207213572","DECAY_DATE":null,"CENTER_NAME":"EARTH","REF_FRAME":"TEME","APOAPSIS":"541.338","MEAN_MOTION_DOT":"0.00002316","RA_OF_ASC_NODE":"87.0210","MEAN_MOTION_DDOT":"0.0000000000000","INCLINATION":"53.2198","COUNTRY_CODE":"US","TLE_LINE2":"2 50811  53.2198  87.0210 0002321  67.0198 293.1039 15.08844155 28448","LAUNCH_DATE":"2022-01-06","PERIAPSIS":"538.127","ARG_OF_PERICENTER":"67.0198","OBJECT_NAME":"STARLINK-3347","SITE":"AFETR","RCS_SIZE":"LARGE","CLASSIFICATION_TYPE":"U","BSTAR":"0.00016353000000","REV_AT_EPOCH":"2844","EPHEMERIS_TYPE":"0","PERIOD":"95.437","NORAD_CAT_ID":"50811"},{"ARG_OF_PERICENTER":"59.6033","EPHEMERIS_TYPE":"0","PERIOD":"95.438","NORAD_CAT_ID":"50812","BSTAR":"0.00012387000000","REV_AT_EPOCH":"2715","OBJECT_NAME":"STARLINK-3338","SITE":"AFETR","RCS_SIZE":"LARGE","CLASSIFICATION_TYPE":"U","MEAN_MOTION_DOT":"0.00001683","CENTER_NAME":"EARTH","DECAY_DATE":null,"APOAPSIS":"541.400","REF_FRAME":"TEME","GP_ID":"207211402","LAUNCH_DATE":"2022-01-06","PERIAPSIS":"538.113","TLE_LINE2":"2 50812  53.2173  87.1681 0002376  59.6033 300.5194 15.08836286 27158","COUNTRY_CODE":"US","RA_OF_ASC_NODE":"87.1681","MEAN_MOTION_DDOT":"0.0000000000000","INCLINATION":"53.2173","TLE_LINE1":"1 50812U 22001K   22182.43673962  .00001683  00000-0  12387-3 0  9998","TIME_SYSTEM":"UTC","MEAN_ELEMENT_THEORY":"SGP4","MEAN_MOTION":"15.08836286","FILE":"3506285","OBJECT_TYPE":"PAYLOAD","ELEMENT_SET_NO":"999","MEAN_ANOMALY":"300.5194","OBJECT_ID":"2022-001K","ECCENTRICITY":"0.00023760","SEMIMAJOR_AXIS":"6917.892","EPOCH":"2022-07-01T10:28:54.303168"},{"TLE_LINE1":"1 50813U 22001L   22182.46985976  .00001691  00000-0  12433-3 0  9994","TIME_SYSTEM":"UTC","MEAN_ELEMENT_THEORY":"SGP4","MEAN_MOTION":"15.08838701","FILE":"3506285","OBJECT_TYPE":"PAYLOAD","ELEMENT_SET_NO":"999","MEAN_ANOMALY":"296.8031","OBJECT_ID":"2022-001L","ECCENTRICITY":"0.00028910","SEMIMAJOR_AXIS":"6917.884","EPOCH":"2022-07-01T11:16:35.883264","ARG_OF_PERICENTER":"63.3257","EPHEMERIS_TYPE":"0","PERIOD":"95.438","NORAD_CAT_ID":"50813","BSTAR":"0.00012433000000","REV_AT_EPOCH":"2716","OBJECT_NAME":"STARLINK-3349","SITE":"AFETR","RCS_SIZE":"LARGE","CLASSIFICATION_TYPE":"U","MEAN_MOTION_DOT":"0.00001691","CENTER_NAME":"EARTH","DECAY_DATE":null,"REF_FRAME":"TEME","APOAPSIS":"541.749","GP_ID":"207210150","LAUNCH_DATE":"2022-01-06","PERIAPSIS":"537.749","COUNTRY_CODE":"US","TLE_LINE2":"2 50813  53.2200  87.0336 0002891  63.3257 296.8031 15.08838701 27160","RA_OF_ASC_NODE":"87.0336","MEAN_MOTION_DDOT":"0.0000000000000","INCLINATION":"53.2200"},{"ARG_OF_PERICENTER":"57.7802","CLASSIFICATION_TYPE":"U","SITE":"AFETR","RCS_SIZE":"LARGE","OBJECT_NAME":"STARLINK-3324","BSTAR":"0.00002411400000","REV_AT_EPOCH":"2825","PERIOD":"95.438","NORAD_CAT_ID":"50814","EPHEMERIS_TYPE":"0","GP_ID":"207184389","REF_FRAME":"TEME","APOAPSIS":"540.986","CENTER_NAME":"EARTH","DECAY_DATE":null,"MEAN_MOTION_DOT":"0.00000096","INCLINATION":"53.2189","RA_OF_ASC_NODE":"98.2952","MEAN_MOTION_DDOT":"0.0000000000000","TLE_LINE2":"2 50814  53.2189  98.2952 0001788  57.7802 302.3363 15.08838735 28251","COUNTRY_CODE":"US","PERIAPSIS":"538.512","LAUNCH_DATE":"2022-01-06","MEAN_ELEMENT_THEORY":"SGP4","TIME_SYSTEM":"UTC","TLE_LINE1":"1 50814U 22001M   22182.18461830  .00000096  00000-0  24114-4 0  9990","FILE":"3506132","MEAN_MOTION":"15.08838735","OBJECT_TYPE":"PAYLOAD","EPOCH":"2022-07-01T04:25:51.021120","ECCENTRICITY":"0.00017880","SEMIMAJOR_AXIS":"6917.884","OBJECT_ID":"2022-001M","MEAN_ANOMALY":"302.3363","ELEMENT_SET_NO":"999"},{"OBJECT_ID":"2022-001N","ECCENTRICITY":"0.00021160","SEMIMAJOR_AXIS":"6917.918","EPOCH":"2022-07-01T11:03:19.044576","ELEMENT_SET_NO":"999","MEAN_ANOMALY":"308.9442","OBJECT_TYPE":"PAYLOAD","FILE":"3506285","MEAN_MOTION":"15.08827665","MEAN_ELEMENT_THEORY":"SGP4","TLE_LINE1":"1 50815U 22001N   22182.46063709  .00001617  00000-0  11970-3 0  9990","TIME_SYSTEM":"UTC","RA_OF_ASC_NODE":"97.0537","MEAN_MOTION_DDOT":"0.0000000000000","INCLINATION":"53.2187","LAUNCH_DATE":"2022-01-06","PERIAPSIS":"538.319","TLE_LINE2":"2 50815  53.2187  97.0537 0002116  51.1739 308.9442 15.08827665 27023","COUNTRY_CODE":"US","DECAY_DATE":null,"CENTER_NAME":"EARTH","APOAPSIS":"541.247","REF_FRAME":"TEME","GP_ID":"207211652","MEAN_MOTION_DOT":"0.00001617","OBJECT_NAME":"STARLINK-3234","SITE":"AFETR","RCS_SIZE":"LARGE","CLASSIFICATION_TYPE":"U","EPHEMERIS_TYPE":"0","PERIOD":"95.438","NORAD_CAT_ID":"50815","REV_AT_EPOCH":"2702","BSTAR":"0.00011970000000","ARG_OF_PERICENTER":"51.1739"},{"EPOCH":"2022-07-01T11:56:17.691072","SEMIMAJOR_AXIS":"6917.893","ECCENTRICITY":"0.00024570","OBJECT_ID":"2022-001P","MEAN_ANOMALY":"297.3258","ELEMENT_SET_NO":"999","OBJECT_TYPE":"PAYLOAD","FILE":"3506285","MEAN_MOTION":"15.08835912","MEAN_ELEMENT_THEORY":"SGP4","TIME_SYSTEM":"UTC","TLE_LINE1":"1 50816U 22001P   22182.49742698  .00001784  00000-0  13020-3 0  9998","INCLINATION":"53.2178","RA_OF_ASC_NODE":"96.9105","MEAN_MOTION_DDOT":"0.0000000000000","TLE_LINE2":"2 50816  53.2178  96.9105 0002457  62.7984 297.3258 15.08835912 27021","COUNTRY_CODE":"US","PERIAPSIS":"538.058","LAUNCH_DATE":"2022-01-06","GP_ID":"207211903","APOAPSIS":"541.458","REF_FRAME":"TEME","DECAY_DATE":null,"CENTER_NAME":"EARTH","MEAN_MOTION_DOT":"0.00001784","CLASSIFICATION_TYPE":"U","RCS_SIZE":"LARGE","SITE":"AFETR","OBJECT_NAME":"STARLINK-3342","REV_AT_EPOCH":"2702","BSTAR":"0.00013020000000","PERIOD":"95.438","NORAD_CAT_ID":"50816","EPHEMERIS_TYPE":"0","ARG_OF_PERICENTER":"62.7984"},{"CLASSIFICATION_TYPE":"U","SITE":"AFETR","RCS_SIZE":"LARGE","OBJECT_NAME":"STARLINK-3341","NORAD_CAT_ID":"50817","PERIOD":"95.438","EPHEMERIS_TYPE":"0","BSTAR":"0.00011038000000","REV_AT_EPOCH":"2702","ARG_OF_PERICENTER":"60.3653","INCLINATION":"53.2183","MEAN_MOTION_DDOT":"0.0000000000000","RA_OF_ASC_NODE":"97.0769","PERIAPSIS":"537.972","LAUNCH_DATE":"2022-01-06","COUNTRY_CODE":"US","TLE_LINE2":"2 50817  53.2183  97.0769 0002597  60.3653 299.7597 15.08832260 27023","APOAPSIS":"541.566","REF_FRAME":"TEME","DECAY_DATE":null,"CENTER_NAME":"EARTH","GP_ID":"207210651","MEAN_MOTION_DOT":"0.00001468","FILE":"3506285","MEAN_MOTION":"15.08832260","MEAN_ELEMENT_THEORY":"SGP4","TLE_LINE1":"1 50817U 22001Q   22182.45695175  .00001468  00000-0  11038-3 0  9998","TIME_SYSTEM":"UTC","SEMIMAJOR_AXIS":"6917.904","ECCENTRICITY":"0.00025970","OBJECT_ID":"2022-001Q","EPOCH":"2022-07-01T10:58:00.631200","MEAN_ANOMALY":"299.7597","ELEMENT_SET_NO":"999","OBJECT_TYPE":"PAYLOAD"}];
